NORAD_CAT_ID,OBJECT_NAME,OBJECT_TYPE,EPOCH,MEAN_MOTION,ECCENTRICITY,INCLINATION,RA_OF_ASC_NODE,ARG_OF_PERICENTER,MEAN_ANOMALY,BSTAR,MEAN_MOTION_DOT,MEAN_MOTION_DDOT,TLE_LINE0,TLE_LINE1,TLE_LINE2,SEMIMAJOR_AXIS,PERIOD,APOGEE,PERIGEE,DECAYED
54081.0,STARLINK-5165,PAYLOAD,2022-10-25 16:00:00,15.90262431,0.0032001999999999,53.2174,123.2664,56.2299,172.3515,-0.0042299999999999,-0.01374172,0.00053628,0 STARLINK-5165,1 54081U 22136AG  22298.66667824 -.01374172  53628-3 -42300-2 0  9995,2 54081  53.2174 123.2664 0032002  56.2299 172.3515 15.90262431  1307,6679.685,90.551,322.926,280.17400000000004,0.0
54081.0,STARLINK-5165,PAYLOAD,2022-10-25 22:00:01,15.89601899,0.0029267,53.2174,121.9999,57.1154,163.2929,-0.0043554,-0.01357196,0.000521,0 STARLINK-5165,1 54081U 22136AG  22298.91668981 -.01357196  52100-3 -43554-2 0  9991,2 54081  53.2174 121.9999 0029267  57.1154 163.2929 15.89601899  1303,6681.535,90.589,322.955,283.845,0.0
54081.0,STARLINK-5165,PAYLOAD,2022-10-26 06:00:00,15.88732305,0.0026085,53.2174,120.3093,56.935,271.5051,-0.0045718999999999,-0.01352139,0.00051328,0 STARLINK-5165,1 54081U 22136AG  22299.25001157 -.01352139  51328-3 -45719-2 0  9993,2 54081  53.2174 120.3093 0026085  56.9350 271.5051 15.88732305  1395,6683.973000000001,90.638,323.273,288.403,0.0
54081.0,STARLINK-5165,PAYLOAD,2022-10-26 14:00:01,15.87827543,0.0022768,53.2174,118.6221,56.3766,19.1317,-0.0045573,-0.01279449,0.00046024,0 STARLINK-5165,1 54081U 22136AG  22299.58334491 -.01279449  46024-3 -45573-2 0  9996,2 54081  53.2174 118.6221 0022768  56.3766  19.1317 15.87827543  1442,6686.512,90.69,323.601,293.153,0.0
54081.0,STARLINK-5165,PAYLOAD,2022-10-26 22:00:00,15.86989837,0.0019329,53.2176,116.9396,54.4798,127.0265,-0.0050046,-0.0133866,0.00049597,0 STARLINK-5165,1 54081U 22136AG  22299.91667824 -.01338660  49597-3 -50046-2 0  9992,2 54081  53.2176 116.9396 0019329  54.4798 127.0265 15.86989837  1301,6688.865,90.738,323.659,297.801,0.0
54081.0,STARLINK-5165,PAYLOAD,2022-10-27 14:00:01,15.85234309,0.0013071,53.2171,113.5747,54.3652,336.1098,-0.0053557,-0.01153185,0.0,0 STARLINK-5165,1 54081U 22136AG  22300.58335648 -.01153185  00000-0 -53557-2 0  9994,2 54081  53.2171 113.5747 0013071  54.3652 336.1098 15.85234309  1601,6693.802,90.838,324.4170000000001,306.918,0.0
54081.0,STARLINK-5165,PAYLOAD,2022-10-27 22:00:00,15.84361933,0.0009752,53.2174,111.8989,50.0475,83.2419,-0.0055474,-0.01141009,0.0,0 STARLINK-5165,1 54081U 22136AG  22300.91667824 -.01141009  00000-0 -55474-2 0  9997,2 54081  53.2174 111.8989 0009752  50.0475  83.2419 15.84361933  1307,6696.259,90.888,324.654,311.594,0.0
54081.0,STARLINK-5165,PAYLOAD,2022-10-28 08:00:01,15.8330237,0.0005605,53.2174,109.8018,35.9416,314.5416,-0.0060856,-0.0120132,0.0,0 STARLINK-5165,1 54081U 22136AG  22301.33335648 -.01201320  00000-0 -60856-2 0  9993,2 54081  53.2174 109.8018 0005605  35.9416 314.5416 15.83302370  1729,6699.246,90.949,324.866,317.356,0.0
54081.0,STARLINK-5165,PAYLOAD,2022-10-28 14:00:01,15.82644035,0.0004043,53.2174,108.547,21.9613,314.0246,-0.0062313,-0.01191783,0.0,0 STARLINK-5165,1 54081U 22136AG  22301.58335648 -.01191783  00000-0 -62313-2 0  9991,2 54081  53.2174 108.5470 0004043  21.9613 314.0246 15.82644035  1302,6701.104,90.987,325.678,320.26,0.0
54081.0,STARLINK-5165,PAYLOAD,2022-10-28 22:00:01,15.81515337,0.000379,53.2176,106.8772,7.2146,68.5424,0.0010279,0.00213561,0.0,0 STARLINK-5165,1 54081U 22136AG  22301.91668981  .00213561  00000-0  10279-2 0  9997,2 54081  53.2176 106.8772 0003790   7.2146  68.5424 15.81515337  1812,6704.292,91.052,328.6980000000001,323.616,0.0
54081.0,STARLINK-5165,PAYLOAD,2022-10-29 08:00:01,15.80711648,0.0004825,53.2172,104.7884,282.6553,6.2323,-0.0070027,-0.01220118,0.0,0 STARLINK-5165,1 54081U 22136AG  22302.33334491 -.01220118  00000-0 -70027-2 0  9996,2 54081  53.2172 104.7884 0004825 282.6553   6.2323 15.80711648  1886,6706.564,91.098,331.665,325.193,0.0
54081.0,STARLINK-5165,PAYLOAD,2022-10-29 12:00:00,15.80240648,0.0006051,53.217,103.9547,275.5289,242.2076,-0.0067916,-0.0116537,0.0,0 STARLINK-5165,1 54081U 22136AG  22302.50001157 -.01165370  00000-0 -67916-2 0  9996,2 54081  53.2170 103.9547 0006051 275.5289 242.2076 15.80240648  1302,6707.897,91.125,333.82,325.703,0.0
54081.0,STARLINK-5165,PAYLOAD,2022-10-29 22:00:01,15.79212904,0.0006312,53.2173,101.8752,271.4534,97.2622,-0.0076327,-0.01239797,0.0,0 STARLINK-5165,1 54081U 22136AG  22302.91668981 -.01239797  00000-0 -76327-2 0  9996,2 54081  53.2173 101.8752 0006312 271.4534  97.2622 15.79212904  1305,6710.807,91.185,336.907,328.436,0.0
54081.0,STARLINK-5165,PAYLOAD,2022-10-30 14:00:01,15.77414696,0.0002563,53.2178,98.5493,252.1643,306.6332,-0.0076733,-0.01155587,0.0,0 STARLINK-5165,1 54081U 22136AG  22303.58334491 -.01155587  00000-0 -76733-2 0  9991,2 54081  53.2178  98.5493 0002563 252.1643 306.6332 15.77414696  1300,6715.906,91.289,339.492,336.0490000000001,0.0
54081.0,STARLINK-5165,PAYLOAD,2022-10-30 22:00:01,15.76584175,4.820000000000001e-05,53.2172,96.8923,297.4474,354.892,-0.0083319,-0.01201787,0.0,0 STARLINK-5165,1 54081U 22136AG  22303.91668981 -.01201787  00000-0 -83319-2 0  9994,2 54081  53.2172  96.8923 0000482 297.4474 354.8920 15.76584175  1302,6718.264,91.337,340.4530000000001,339.805,0.0
54081.0,STARLINK-5165,PAYLOAD,2022-10-31 14:00:01,15.7484864,0.0001319,53.2173,93.5795,56.4126,59.7223,-0.0090388999999999,-0.01207001,0.0,0 STARLINK-5165,1 54081U 22136AG  22304.58334491 -.01207001  00000-0 -90389-2 0  9994,2 54081  53.2173  93.5795 0001319  56.4126  59.7223 15.74848640  1306,6723.199000000001,91.437,345.951,344.177,0.0
54081.0,STARLINK-5165,PAYLOAD,2022-10-31 22:00:01,15.73824334,0.0001406,53.2171,91.9284,58.0711,148.5193,-0.0052724,-0.00700588,0.0,0 STARLINK-5165,1 54081U 22136AG  22304.91668981 -.00700588  00000-0 -52724-2 0  9993,2 54081  53.2171  91.9284 0001406  58.0711 148.5193 15.73824334  1300,6726.116,91.497,348.926,347.035,0.0
54081.0,STARLINK-5165,PAYLOAD,2022-11-01 06:00:00,15.73394213,0.0001177,53.2173,90.2768,46.8936,248.9006,-0.0018334,-0.00252445,0.0,0 STARLINK-5165,1 54081U 22136AG  22305.25001157 -.00252445  00000-0 -18334-2 0  9990,2 54081  53.2173  90.2768 0001177  46.8936 248.9006 15.73394213  2341,6727.342,91.522,349.99800000000016,348.415,0.0
54081.0,STARLINK-5165,PAYLOAD,2022-11-01 14:00:01,15.73257684,0.0001144,53.2159,88.6296,44.0519,340.6692,-8.327700000000001e-05,-0.00012319,0.0,0 STARLINK-5165,1 54081U 22136AG  22305.58334491 -.00012319  00000-0 -83277-4 0  9990,2 54081  53.2159  88.6296 0001144  44.0519 340.6692 15.73257684  1309,6727.731,91.53,350.365,348.826,0.0
54081.0,STARLINK-5165,PAYLOAD,2022-11-01 22:00:00,15.73233673,0.0001408,53.2154,86.9808,42.2376,71.4837,0.00036698,0.00051273,0.0,0 STARLINK-5165,1 54081U 22136AG  22305.91667824  .00051273  00000-0  36698-3 0  9990,2 54081  53.2154  86.9808 0001408  42.2376  71.4837 15.73233673  2446,6727.799,91.531,350.611,348.717,0.0
54081.0,STARLINK-5165,PAYLOAD,2022-11-02 14:00:01,15.73280777,0.0001608,53.2164,83.6805,51.805,239.9038,-0.00064363,-0.0009029999999999,0.0,0 STARLINK-5165,1 54081U 22136AG  22306.58334491 -.00090300  00000-0 -64363-3 0  9991,2 54081  53.2164  83.6805 0001608  51.8050 239.9038 15.73280777  2558,6727.665,91.528,350.612,348.4480000000001,0.0
54081.0,STARLINK-5165,PAYLOAD,2022-11-02 22:00:00,15.73186466,0.0001619,53.2156,82.0316,40.0896,340.5695,-5.0409e-05,-7.684e-05,0.0,0 STARLINK-5165,1 54081U 22136AG  22306.91667824 -.00007684  00000-0 -50409-4 0  9997,2 54081  53.2156  82.0316 0001619  40.0896 340.5695 15.73186466  2603,6727.934,91.534,350.88800000000015,348.71,0.0
54081.0,STARLINK-5165,PAYLOAD,2022-11-03 14:00:01,15.73300175,0.0001567,53.2155,78.732,35.8344,162.7104,-0.0005794,-0.00081502,0.0,0 STARLINK-5165,1 54081U 22136AG  22307.58334491 -.00081502  00000-0 -57940-3 0  9999,2 54081  53.2155  78.7320 0001567  35.8344 162.7104 15.73300175  2717,6727.61,91.527,350.529,348.42,0.0
54081.0,STARLINK-5165,PAYLOAD,2022-11-03 22:00:00,15.73256893,0.000173,53.215,77.0826,32.0407,255.5159,-0.00045686,-0.00064408,0.0,0 STARLINK-5165,1 54081U 22136AG  22307.91667824 -.00064408  00000-0 -45686-3 0  9995,2 54081  53.2150  77.0826 0001730  32.0407 255.5159 15.73256893  1308,6727.733,91.53,350.76199999999994,348.434,0.0
54081.0,STARLINK-5165,PAYLOAD,2022-11-04 06:00:00,15.73178097,0.0001598,53.2153,75.4306,40.6729,335.8644,0.00020332,0.00027983,0.0,0 STARLINK-5165,1 54081U 22136AG  22308.25001157  .00027983  00000-0  20332-3 0  9990,2 54081  53.2153  75.4306 0001598  40.6729 335.8644 15.73178097  2817,6727.958000000001,91.534,350.898,348.747,0.0
54081.0,STARLINK-5165,PAYLOAD,2022-11-04 14:00:01,15.7327044,0.0001653,53.2165,73.7817,34.3408,71.1069,-0.0029275,-0.00394033,0.0,0 STARLINK-5165,1 54081U 22136AG  22308.58334491 -.00394033  00000-0 -29275-2 0  9995,2 54081  53.2165  73.7817 0001653  34.3408  71.1069 15.73270440  2865,6727.694,91.529,350.671,348.44699999999995,0.0
54081.0,STARLINK-5165,PAYLOAD,2022-11-04 22:00:01,15.73230403,0.0001958,53.2155,72.1334,33.3177,161.1499,-0.0006054999999999,-0.00084864,0.0,0 STARLINK-5165,1 54081U 22136AG  22308.91668981 -.00084864  00000-0 -60550-3 0  9996,2 54081  53.2155  72.1334 0001958  33.3177 161.1499 15.73230403  2920,6727.808000000001,91.531,350.991,348.356,0.0
54081.0,STARLINK-5165,PAYLOAD,2022-11-05 14:00:01,15.73110498,0.0001989,53.2155,68.8344,30.2086,342.0277,0.00040624,0.00056561,0.0,0 STARLINK-5165,1 54081U 22136AG  22309.58335648  .00056561  00000-0  40624-3 0  9992,2 54081  53.2155  68.8344 0001989  30.2086 342.0277 15.73110498  1308,6728.15,91.538,351.35400000000016,348.677,0.0
54081.0,STARLINK-5165,PAYLOAD,2022-11-05 22:00:01,15.73198854,0.0002045,53.2152,67.1851,26.2791,74.7924,-7.6147e-05,-0.00011294,0.0,0 STARLINK-5165,1 54081U 22136AG  22309.91668981 -.00011294  00000-0 -76147-4 0  9994,2 54081  53.2152  67.1851 0002045  26.2791  74.7924 15.73198854  3078,6727.898,91.533,351.139,348.38800000000015,0.0
